     2.10           G: GLONASS NAV DATA                     RINEX VERSION / TYPE
teqc  2015Jun23                         20220210 01:25:41UTCPGM / RUN BY / DATE
Linux 2.4.21-27.ELsmp|Opteron|gcc -static|Linux x86_64|=+   COMMENT
  2022     1    17   -1.862645149231D-09                    CORR TO SYSTEM TIME
                                                            END OF HEADER
18 22  1 18  6 15  0.0 1.042196527123D-04 9.094947017729D-13 2.232000000000D+04
    1.034918457031D+03-2.899236679077D+00-0.000000000000D+00 0.000000000000D+00
    1.081629882812D+04 1.276705741882D+00 4.656612873077D-09-3.000000000000D+00
   -2.305226074219D+04 4.732866287231D-01 0.000000000000D+00 0.000000000000D+00
 5 22  1 18  6 15  0.0 8.617434650660D-05 9.094947017729D-13 2.331000000000D+04
    8.952963867188D+03-2.666931152344D-01-9.313225746155D-10 0.000000000000D+00
    1.032424755859D+04 2.937828063965D+00-0.000000000000D+00 1.000000000000D+00
    2.154089746094D+04-1.300114631653D+00-2.793967723846D-09 0.000000000000D+00
24 22  1 18  6 45  0.0 7.617194205523D-05 1.818989403546D-12 2.340000000000D+04
   -2.252611376953D+04 1.047455787659D+00 2.793967723846D-09 0.000000000000D+00
    8.799091308594D+03-4.143972396851D-01 0.000000000000D+00 2.000000000000D+00
    8.154883300781D+03 3.348798751831D+00-9.313225746155D-10 0.000000000000D+00
 4 22  1 18  6 45  0.0 1.240493729711D-04 1.818989403546D-12 2.340000000000D+04
    2.247283203125D+03 1.934881210327D-01 0.000000000000D+00 0.000000000000D+00
    2.513500781250D+04 4.998073577881D-01 3.725290298462D-09 6.000000000000D+00
    3.701835937500D+03-3.535918235779D+00-2.793967723846D-09 0.000000000000D+00
 3 22  1 18  6 45  0.0 5.013402551413D-05 0.000000000000D+00 2.340000000000D+04
   -5.663342773438D+03 8.876514434814D-02 9.313225746155D-10 0.000000000000D+00
    2.113024072266D+04-1.796550750732D+00 4.656612873077D-09 5.000000000000D+00
   -1.302799658203D+04-2.948445320129D+00-9.313225746155D-10 0.000000000000D+00
 5 22  1 18  6 45  0.0 8.617527782917D-05 9.094947017729D-13 2.340000000000D+04
    8.871071289062D+03 1.576471328735D-01-0.000000000000D+00 0.000000000000D+00
    1.527537255859D+04 2.516913414001D+00 9.313225746155D-10 1.000000000000D+00
    1.839832373047D+04-2.169052124023D+00-2.793967723846D-09 0.000000000000D+00
15 22  1 18  6 45  0.0 9.881798177958D-05-0.000000000000D+00 2.340000000000D+04
    1.016713916016D+04-2.095159530640D+00-9.313225746155D-10 0.000000000000D+00
    1.519677929688D+04-1.241736412048D+00 9.313225746155D-10 0.000000000000D+00
    1.779811035156D+04 2.259220123291D+00-2.793967723846D-09 0.000000000000D+00
17 22  1 18  6 45  0.0 4.936261102557D-04 2.728484105319D-12 2.340000000000D+04
   -1.779709912109D+04-9.901523590088D-01 1.862645149231D-09 0.000000000000D+00
    1.572178417969D+04 8.418903350830D-01 2.793967723846D-09 4.000000000000D+00
   -9.347865234375D+03 3.292257308960D+00-9.313225746155D-10 0.000000000000D+00
18 22  1 18  6 45  0.0 1.042215153575D-04 0.000000000000D+00 2.340000000000D+04
   -3.834528320312D+03-2.470502853394D+00 9.313225746155D-10 0.000000000000D+00
    1.341673681641D+04 1.579111099243D+00 4.656612873077D-09-3.000000000000D+00
   -2.131772119141D+04 1.441554069519D+00-0.000000000000D+00 0.000000000000D+00
24 22  1 18  7 15  0.0 7.617473602295D-05 1.818989403546D-12 2.520000000000D+04
   -2.012689794922D+04 1.577282905579D+00 1.862645149231D-09 0.000000000000D+00
    7.503431640625D+03-1.041178703308D+00-1.862645149231D-09 2.000000000000D+00
    1.379023291016D+04 2.872159957886D+00-9.313225746155D-10 0.000000000000D+00
 4 22  1 18  7 15  0.0 1.240521669388D-04 1.818989403546D-12 2.520000000000D+04
    2.570880371094D+03 1.247243881226D-01 9.313225746155D-10 0.000000000000D+00
    2.522244921875D+04-4.002618789673D-01 4.656612873077D-09 6.000000000000D+00
   -2.723734375000D+03-3.557206153870D+00-2.793967723846D-09 0.000000000000D+00
 3 22  1 18  7 15  0.0 5.013402551413D-05-0.000000000000D+00 2.520000000000D+04
   -5.809700683594D+03-2.783403396606D-01 1.862645149231D-09 0.000000000000D+00
    1.729262158203D+04-2.429644584656D+00 3.725290298462D-09 5.000000000000D+00
   -1.775978173828D+04-2.274750709534D+00-0.000000000000D+00 0.000000000000D+00
 5 22  1 18  7 15  0.0 8.617155253887D-05 9.094947017729D-13 2.520000000000D+04
    9.427968750000D+03 4.287347793579D-01 0.000000000000D+00 0.000000000000D+00
    1.923748583984D+04 1.851172447205D+00 1.862645149231D-09 1.000000000000D+00
    1.383292773438D+04-2.870723724365D+00-2.793967723846D-09 0.000000000000D+00
15 22  1 18  7 15  0.0 9.881705045700D-05-0.000000000000D+00 2.520000000000D+04
    5.843741210938D+03-2.677463531494D+00-0.000000000000D+00 0.000000000000D+00
    1.306867822266D+04-1.085281372070D+00-0.000000000000D+00 0.000000000000D+00
    2.112496679688D+04 1.413366317749D+00-2.793967723846D-09 0.000000000000D+00
17 22  1 18  7 15  0.0 4.936326295137D-04 3.637978807092D-12 2.520000000000D+04
   -1.885444238281D+04-1.961917877197D-01 2.793967723846D-09 0.000000000000D+00
    1.691824169922D+04 4.460124969482D-01 1.862645149231D-09 4.000000000000D+00
   -3.137411621094D+03 3.563486099243D+00-9.313225746155D-10 0.000000000000D+00
18 22  1 18  7 15  0.0 1.042224466801D-04 0.000000000000D+00 2.520000000000D+04
   -7.738797363281D+03-1.842588424683D+00 1.862645149231D-09 0.000000000000D+00
    1.635870605469D+04 1.645509719849D+00 3.725290298462D-09-3.000000000000D+00
   -1.792956689453D+04 2.298605918884D+00-0.000000000000D+00 0.000000000000D+00
18 22  1 18  7 45  0.0 1.042243093252D-04 0.000000000000D+00 2.700000000000D+04
   -1.041175000000D+04-1.121554374695D+00 2.793967723846D-09 0.000000000000D+00
    1.917245751953D+04 1.433301925659D+00 2.793967723846D-09-3.000000000000D+00
   -1.314987011719D+04 2.977572441101D+00-9.313225746155D-10 0.000000000000D+00
 4 22  1 18  7 45  0.0 1.240549609065D-04 1.818989403546D-12 2.700000000000D+04
    2.553986328125D+03-1.797208786011D-01 1.862645149231D-09 0.000000000000D+00
    2.373801513672D+04-1.227494239807D+00 3.725290298462D-09 6.000000000000D+00
   -8.938404785156D+03-3.303047180176D+00-1.862645149231D-09 0.000000000000D+00
 3 22  1 18  7 45  0.0 5.013402551413D-05 0.000000000000D+00 2.700000000000D+04
   -6.735310546875D+03-7.612390518188D-01 1.862645149231D-09 0.000000000000D+00
    1.254072607422D+04-2.802107810974D+00 2.793967723846D-09 5.000000000000D+00
   -2.111076269531D+04-1.424298286438D+00 0.000000000000D+00 0.000000000000D+00
 5 22  1 18  7 45  0.0 8.617248386145D-05 9.094947017729D-13 2.700000000000D+04
    1.028020166016D+04 4.773311614990D-01 9.313225746155D-10 0.000000000000D+00
    2.184612939453D+04 1.030424118042D+00 2.793967723846D-09 1.000000000000D+00
    8.197145019531D+03-3.350592613220D+00-2.793967723846D-09 0.000000000000D+00
15 22  1 18  7 45  0.0 9.881705045700D-05-0.000000000000D+00 2.700000000000D+04
    6.659990234375D+02-3.031348228455D+00 0.000000000000D+00 0.000000000000D+00
    1.140407373047D+04-7.393875122070D-01-9.313225746155D-10 0.000000000000D+00
    2.282074853516D+04 4.586582183838D-01-2.793967723846D-09 0.000000000000D+00
17 22  1 18  7 45  0.0 4.936400800943D-04 3.637978807092D-12 2.700000000000D+04
   -1.857714501953D+04 4.756479263306D-01 2.793967723846D-09 0.000000000000D+00
    1.719454785156D+04-1.699876785278D-01 0.000000000000D+00 4.000000000000D+00
    3.315207031250D+03 3.559633255005D+00-9.313225746155D-10 0.000000000000D+00
19 22  1 18  7 45  0.0-1.748446375132D-04-9.094947017729D-13 2.769000000000D+04
    2.046845703125D+03-2.156484603882D+00 1.862645149231D-09 0.000000000000D+00
    1.192779443359D+04 2.201820373535D+00 3.725290298462D-09 3.000000000000D+00
   -2.244761914062D+04 9.728212356567D-01-0.000000000000D+00 0.000000000000D+00
18 22  1 18  8 15  0.0 1.042252406478D-04 0.000000000000D+00 2.880000000000D+04
   -1.179091650391D+04-4.244346618652D-01 2.793967723846D-09 0.000000000000D+00
    2.135286230469D+04 9.464626312256D-01 9.313225746155D-10-3.000000000000D+00
   -7.349329589844D+03 3.425443649292D+00-9.313225746155D-10 0.000000000000D+00
 4 22  1 18  8 15  0.0 1.240577548742D-04 1.818989403546D-12 2.880000000000D+04
    1.812786621094D+03-6.681280136108D-01 2.793967723846D-09 0.000000000000D+00
    2.091129736328D+04-1.876004219055D+00 3.725290298462D-09 6.000000000000D+00
   -1.446067382812D+04-2.792843818665D+00-9.313225746155D-10 0.000000000000D+00
 3 22  1 18  8 15  0.0 5.013402551413D-05 0.000000000000D+00 2.880000000000D+04
   -8.557698730469D+03-1.256528854370D+00 1.862645149231D-09 0.000000000000D+00
    7.386234863281D+03-2.874155044556D+00 1.862645149231D-09 5.000000000000D+00
   -2.282095312500D+04-4.636287689209D-01 9.313225746155D-10 0.000000000000D+00
 5 22  1 18  8 15  0.0 8.617341518402D-05 0.000000000000D+00 2.880000000000D+04
    1.099451611328D+04 2.744026184082D-01 1.862645149231D-09 0.000000000000D+00
    2.292134765625D+04 1.670494079590D-01 3.725290298462D-09 1.000000000000D+00
    1.926748535156D+03-3.571217536926D+00-2.793967723846D-09 0.000000000000D+00
17 22  1 18  8 15  0.0 4.936465993524D-04 3.637978807092D-12 2.880000000000D+04
   -1.726891113281D+04 9.374322891235D-01 1.862645149231D-09 0.000000000000D+00
    1.622227783203D+04-9.250965118408D-01-9.313225746155D-10 4.000000000000D+00
    9.512117187500D+03 3.281236648560D+00-9.313225746155D-10 0.000000000000D+00
19 22  1 18  8 15  0.0-1.748474314809D-04-9.094947017729D-13 2.880000000000D+04
   -1.332386230469D+03-1.578178405762D+00 2.793967723846D-09 0.000000000000D+00
    1.595543603516D+04 2.225304603577D+00 3.725290298462D-09 3.000000000000D+00
   -1.985095166016D+04 1.893614768982D+00-0.000000000000D+00 0.000000000000D+00
18 22  1 18  8 45  0.0 1.042271032929D-04 0.000000000000D+00 3.060000000000D+04
   -1.201969384766D+04 1.402912139893D-01 2.793967723846D-09 0.000000000000D+00
    2.244451806641D+04 2.356023788452D-01 0.000000000000D+00-3.000000000000D+00
   -9.782758789062D+02 3.607348442078D+00-9.313225746155D-10 0.000000000000D+00
